     2.100          NAVIGATION                              RINEX VERSION / TYPE
fic2rin                                 07/15/2014 00:23:09 PGM / RUN BY / DATE
                                                            END OF HEADER
 7 14  7 14  8  0  0.0  .368515495211D-03  .432009983342D-11  .000000000000D+00
     .860000000000D+02  .824687500000D+02  .404552565524D-08  .773079731931D-01
     .417791306973D-05  .763224065304D-02  .114142894745D-04  .515362664604D+04
     .115200000000D+06  .540167093277D-07  .588791522010D+00  .521540641785D-07
     .973357292672D+00  .163968750000D+03 -.282518246465D+01 -.788747140199D-08
    -.141791620476D-09  .100000000000D+01  .180100000000D+04  .000000000000D+00
     .240000000000D+01  .000000000000D+00 -.107102096081D-07  .860000000000D+02
     .108006000000D+06  .400000000000D+01
 8 14  7 14  8  0  0.0  .147065147758D-04  .113686837722D-12  .000000000000D+00
     .160000000000D+03  .945937500000D+02  .351300347355D-08 -.319795436969D+00
     .481121242046D-05  .139482023660D-01  .106692314148D-04  .515335527420D+04
     .115200000000D+06  .158324837685D-06  .689254444066D+00  .141561031342D-06
     .996632667488D+00  .193812500000D+03 -.276518268340D+01 -.772853621027D-08
    -.503592405216D-10  .100000000000D+01  .180100000000D+04  .000000000000D+00
     .240000000000D+01  .000000000000D+00 -.419095158577D-08  .160000000000D+03
     .108006000000D+06  .400000000000D+01
 9 14  7 14  8  0  0.0  .165081582963D-03  .553654899704D-10  .000000000000D+00
     .141000000000D+03  .748750000000D+02  .377587156592D-08  .108919687059D+01
     .345334410667D-05  .171264259843D-01  .116806477308D-04  .515368172264D+04
     .115200000000D+06 -.856816768646D-07  .568782211285D+00 -.372529029846D-06
     .981901225796D+00  .167625000000D+03  .183906951379D+01 -.778996734055D-08
    -.122862260563D-09  .100000000000D+01  .180100000000D+04  .000000000000D+00
     .240000000000D+01  .630000000000D+02 -.605359673500D-08  .141000000000D+03
     .108006000000D+06  .400000000000D+01
10 14  7 14  8  0  0.0 -.133575405926D-03 -.159161572810D-11  .000000000000D+00
     .180000000000D+02  .431562500000D+02  .549272879420D-08 -.240531133857D+01
     .191293656826D-05  .136258767452D-01  .491924583912D-05  .515359457588D+04
     .115200000000D+06  .201165676117D-06 -.151675453105D+01 -.106170773506D-06
     .941428934431D+00  .272656250000D+03  .869651938505D+00 -.841142179805D-08
     .541093967307D-09  .100000000000D+01  .180100000000D+04  .000000000000D+00
     .240000000000D+01  .000000000000D+00 -.279396772385D-08  .180000000000D+02
     .108006000000D+06  .400000000000D+01
11 14  7 14  8  0  0.0 -.505114905536D-03 -.306954461848D-11  .000000000000D+00
     .280000000000D+02 -.843437500000D+02  .588810240596D-08  .221723388263D+00
    -.443309545517D-05  .151667894097D-01  .113714486361D-04  .515370948982D+04
     .115200000000D+06 -.298023223877D-06 -.289876664131D+01  .633299350739D-07
     .891290972155D+00  .128281250000D+03  .130309785887D+01 -.885001149564D-08
     .746459664470D-10  .100000000000D+01  .180100000000D+04  .000000000000D+00
     .240000000000D+01  .000000000000D+00 -.121071934700D-07  .280000000000D+02
     .108006000000D+06  .400000000000D+01
12 14  7 14  8  0  0.0  .217964872718D-03  .250111042988D-11  .000000000000D+00
     .810000000000D+02  .636875000000D+02  .432446584565D-08 -.399234282007D+00
     .324472784996D-05  .512722029816D-02  .163726508617D-05  .515358524132D+04
     .115200000000D+06  .104308128357D-06  .165268768231D+01  .745058059692D-08
     .987617663040D+00  .361437500000D+03  .483616548136D+00 -.840820737844D-08
     .166435504135D-09  .100000000000D+01  .180100000000D+04  .000000000000D+00
     .240000000000D+01  .000000000000D+00 -.121071934700D-07  .810000000000D+02
     .108006000000D+06  .400000000000D+01
13 14  7 14  8  0  0.0 -.203726813197D-04 -.386535248253D-11  .000000000000D+00
     .110000000000D+02 -.394687500000D+02  .442161274935D-08  .238192045467D+01
    -.185519456863D-05  .532239256427D-02  .891089439392D-05  .515356257629D+04
     .115200000000D+06  .117346644402D-06 -.374730423198D+00  .186264514923D-08
     .977277502045D+00  .215406250000D+03  .231173178841D+01 -.789747181854D-08
    -.686457165125D-09  .100000000000D+01  .180100000000D+04  .000000000000D+00
     .240000000000D+01  .000000000000D+00 -.111758708954D-07  .110000000000D+02
     .108006000000D+06  .400000000000D+01
14 14  7 14  8  0  0.0  .154606997967D-03 -.352429196937D-11  .000000000000D+00
     .610000000000D+02 -.415937500000D+02  .453733185523D-08  .275148324410D+01
    -.216811895370D-05  .774102227297D-02  .909157097340D-05  .515368264389D+04
     .115200000000D+06  .502914190292D-07 -.406912801071D+00 -.143423676491D-06
     .969799291576D+00  .205656250000D+03 -.199677430637D+01 -.786639909567D-08
    -.771817863598D-09  .100000000000D+01  .180100000000D+04  .000000000000D+00
     .240000000000D+01  .000000000000D+00 -.931322574615D-08  .610000000000D+02
     .108006000000D+06  .400000000000D+01
15 14  7 14  8  0  0.0 -.190887134522D-03 -.216004991671D-11  .000000000000D+00
     .720000000000D+02 -.431250000000D+02  .551487257372D-08  .213619051929D+01
    -.214017927647D-05  .634371128399D-02  .798515975475D-05  .515371830559D+04
     .115200000000D+06 -.180676579475D-06 -.520444368243D+00  .158324837685D-06
     .936283633571D+00  .213906250000D+03  .271793918793D+00 -.845713798803D-08
    -.606810990399D-09  .100000000000D+01  .180100000000D+04  .000000000000D+00
     .240000000000D+01  .000000000000D+00 -.102445483208D-07  .720000000000D+02
     .108006000000D+06  .400000000000D+01
16 14  7 14  8  0  0.0 -.207664445043D-03  .216004991671D-11  .000000000000D+00
     .102000000000D+03  .656562500000D+02  .420553232016D-08 -.251573130971D+01
     .338628888130D-05  .769311783370D-02  .206567347050D-05  .515362047005D+04
     .115200000000D+06 -.912696123123D-07  .167126955511D+01 -.122934579849D-06
     .988212279259D+00  .355062500000D+03  .233914992047D+00 -.823748598150D-08
     .250724729406D-09  .100000000000D+01  .180100000000D+04  .000000000000D+00
     .240000000000D+01  .000000000000D+00 -.102445483208D-07  .102000000000D+03
     .108006000000D+06  .400000000000D+01
17 14  7 14  8  0  0.0 -.108782202005D-03 -.295585778076D-11  .000000000000D+00
     .103000000000D+03 -.130062500000D+03  .411874299075D-08  .285676390357D+01
    -.668689608574D-05  .934892415535D-02  .600144267082D-05  .515362512016D+04
     .115200000000D+06  .130385160446D-07  .270280124373D+01 -.111758708954D-06
     .969457733852D+00  .265937500000D+03 -.209957135811D+01 -.793497338063D-08
    -.307155651409D-09  .100000000000D+01  .180100000000D+04  .000000000000D+00
     .340000000000D+01  .000000000000D+00 -.102445483208D-07  .103000000000D+03
     .108006000000D+06  .400000000000D+01
18 14  7 14  8  0  0.0  .331475399435D-03  .238742359215D-11  .000000000000D+00
     .250000000000D+02  .451562500000D+02  .584988652840D-08 -.187525437848D+01
     .243633985519D-05  .154684041627D-01  .465847551823D-05  .515370044327D+04
     .115200000000D+06  .284984707832D-06 -.154006701425D+01 -.111758708954D-07
     .925198648317D+00  .264156250000D+03 -.202376988625D+01 -.856499962376D-08
     .615739933754D-09  .100000000000D+01  .180100000000D+04  .000000000000D+00
     .240000000000D+01  .000000000000D+00 -.111758708954D-07  .250000000000D+02
     .108006000000D+06  .400000000000D+01
19 14  7 14  8  0  0.0 -.468053389341D-03 -.204636307899D-11  .000000000000D+00
     .180000000000D+02 -.141593750000D+03  .431767984870D-08  .203359728130D+01
    -.734440982342D-05  .105094421888D-01  .643543899059D-05  .515363974762D+04
     .115200000000D+06 -.109896063805D-06  .275345204657D+01 -.931322574615D-08
     .966600469052D+00  .261906250000D+03  .466246998476D+00 -.818855537191D-08
    -.422874757288D-09  .100000000000D+01  .180100000000D+04  .000000000000D+00
     .240000000000D+01  .000000000000D+00 -.149011611938D-07  .180000000000D+02
     .108006000000D+06  .400000000000D+01
20 14  7 14  8  0  0.0  .210456550121D-03  .420641299570D-11  .000000000000D+00
     .880000000000D+02  .471875000000D+02  .583595737676D-08 -.136885949218D+01
     .267848372459D-05  .577054184396D-02  .568293035030D-05  .515375694084D+04
     .115200000000D+06  .186264514923D-07 -.159311261544D+01  .111758708954D-06
     .926240112864D+00  .253687500000D+03  .133028263941D+01 -.870286250916D-08
     .526093342471D-09  .100000000000D+01  .180100000000D+04  .000000000000D+00
     .340000000000D+01  .000000000000D+00 -.838190317154D-08  .880000000000D+02
     .108006000000D+06  .400000000000D+01
21 14  7 14  8  0  0.0 -.372533686459D-03 -.216004991671D-11  .000000000000D+00
     .700000000000D+01 -.246875000000D+02  .490520432145D-08 -.927214262699D+00
    -.929459929466D-06  .215550533030D-01  .136271119118D-04  .515373607254D+04
     .115200000000D+06  .558793544769D-08 -.258510065408D+01  .512227416039D-06
     .932791314571D+00  .103906250000D+03 -.201003262028D+01 -.839034949173D-08
     .480734310228D-09  .100000000000D+01  .180100000000D+04  .000000000000D+00
     .240000000000D+01  .000000000000D+00 -.111758708954D-07  .700000000000D+01
     .108006000000D+06  .400000000000D+01
22 14  7 14  8  0  0.0  .250091776252D-03  .341060513165D-11  .000000000000D+00
     .340000000000D+02  .418125000000D+02  .593417575367D-08 -.243502408105D+01
     .200048089027D-05  .737184286118D-02  .515207648277D-05  .515371654510D+04
     .115200000000D+06  .158324837685D-06 -.153827371075D+01 -.167638063431D-07
     .922979448404D+00  .257156250000D+03 -.205102067073D+01 -.869929093181D-08
     .572166690182D-09  .100000000000D+01  .180100000000D+04  .000000000000D+00
     .240000000000D+01  .000000000000D+00 -.172294676304D-07  .340000000000D+02
     .108006000000D+06  .400000000000D+01
